{"type": "FeatureCollection", "features": [ {"type": "Feature", "properties": {"norad_id": 30396, "name": "FENGYUN 1C DEB", "group": "fengyun-1c-debris", "lat": -14.007443103396813, "lon": -9.318989585399985, "alt_km": 1030.6972429802254, "timestamp": "2025-12-09T09:46:47.921856+00:00", "meta": {"OBJECT_NAME": "FENGYUN 1C DEB", "OBJECT_ID": "1999-025ADK", "EPOCH": "2025-12-08T23:36:11.229984", "MEAN_MOTION": 13.8716699, "ECCENTRICITY": 0.01348745, "INCLINATION": 98.224, "RA_OF_ASC_NODE": 348.2401, "ARG_OF_PERICENTER": 140.0489, "MEAN_ANOMALY": 250.2419, "EPHEMERIS_TYPE": 0, "CLASSIFICATION_TYPE": "U", "NORAD_CAT_ID": 30396, "ELEMENT_SET_NO": 999, "REV_AT_EPOCH": 95527, "BSTAR": 0.00015249055, "MEAN_MOTION_DOT": 1.57e-06, "MEAN_MOTION_DDOT": 0}, "tle": {"line1": "1 30396U 99025ADK 25342.98346331  .00000157  00000+0  15249-3 0  9995", "line2": "2 30396  98.2240 348.2401 0134874 140.0489 250.2419 13.87166990955274"}}, "geometry": {"type": "Point", "coordinates": [-9.318989585399985, -14.007443103396813]}}, {"type": "Feature", "properties": {"norad_id": 30397, "name": "FENGYUN 1C DEB", "group": "fengyun-1c-debris", "lat": 79.96377929958393, "lon": 8.55933163084163, "alt_km": 783.0270198730022, "timestamp": "2025-12-09T09:46:47.921867+00:00", "meta": {"OBJECT_NAME": "FENGYUN 1C DEB", "OBJECT_ID": "1999-025ADL", "EPOCH": "2025-12-08T23:36:34.572672", "MEAN_MOTION": 13.98569106, "ECCENTRICITY": 0.01497433, "INCLINATION": 98.4064, "RA_OF_ASC_NODE": 131.4981, "ARG_OF_PERICENTER": 103.1164, "MEAN_ANOMALY": 20.1501, "EPHEMERIS_TYPE": 0, "CLASSIFICATION_TYPE": "U", "NORAD_CAT_ID": 30397, "ELEMENT_SET_NO": 999, "REV_AT_EPOCH": 95712, "BSTAR": 0.0013273284, "MEAN_MOTION_DOT": 2.058e-05, "MEAN_MOTION_DDOT": 0}, "tle": {"line1": "1 30397U 99025ADL 25342.98373348  .00002058  00000+0  13273-2 0  9990", "line2": "2 30397  98.4064 131.4981 0149743 103.1164  20.1501 13.98569106957127"}}, "geometry": {"type": "Point", "coordinates": [8.55933163084163, 79.96377929958393]}}, {"type": "Feature", "properties": {"norad_id": 30398, "name": "FENGYUN 1C DEB", "group": "fengyun-1c-debris", "lat": 31.495492379509376, "lon": -126.17632482526588, "alt_km": 958.5535489225022, "timestamp": "2025-12-09T09:46:47.921878+00:00", "meta": {"OBJECT_NAME": "FENGYUN 1C DEB", "OBJECT_ID": "1999-025ADM", "EPOCH": "2025-12-08T16:20:48.511392", "MEAN_MOTION": 13.78691721, "ECCENTRICITY": 0.01729872, "INCLINATION": 99.7142, "RA_OF_ASC_NODE": 239.104, "ARG_OF_PERICENTER": 306.6441, "MEAN_ANOMALY": 80.1241, "EPHEMERIS_TYPE": 0, "CLASSIFICATION_TYPE": "U", "NORAD_CAT_ID": 30398, "ELEMENT_SET_NO": 999, "REV_AT_EPOCH": 94701, "BSTAR": 0.00092458443, "MEAN_MOTION_DOT": 1.002e-05, "MEAN_MOTION_DDOT": 0}, "tle": {"line1": "1 30398U 99025ADM 25342.68111703  .00001002  00000+0  92458-3 0  9994", "line2": "2 30398  99.7142 239.1040 0172987 306.6441  80.1241 13.78691721947016"}}, "geometry": {"type": "Point", "coordinates": [-126.17632482526588, 31.495492379509376]}}, {"type": "Feature", "properties": {"norad_id": 30400, "name": "FENGYUN 1C DEB", "group": "fengyun-1c-debris", "lat": -19.555043446374984, "lon": 87.58326775578446, "alt_km": 999.2575586068951, "timestamp": "2025-12-09T09:46:47.921888+00:00", "meta": {"OBJECT_NAME": "FENGYUN 1C DEB", "OBJECT_ID": "1999-025ADP", "EPOCH": "2025-12-08T07:50:43.519776", "MEAN_MOTION": 14.09839617, "ECCENTRICITY": 0.02278529, "INCLINATION": 99.1568, "RA_OF_ASC_NODE": 269.7675, "ARG_OF_PERICENTER": 348.052, "MEAN_ANOMALY": 131.592, "EPHEMERIS_TYPE": 0, "CLASSIFICATION_TYPE": "U", "NORAD_CAT_ID": 30400, "ELEMENT_SET_NO": 999, "REV_AT_EPOCH": 95452, "BSTAR": 0.0059510634, "MEAN_MOTION_DOT": 0.00013297, "MEAN_MOTION_DDOT": 0}, "tle": {"line1": "1 30400U 99025ADP 25342.32689259  .00013297  00000+0  59511-2 0  9996", "line2": "2 30400  99.1568 269.7675 0227852 348.0520 131.5920 14.09839617954521"}}, "geometry": {"type": "Point", "coordinates": [87.58326775578446, -19.555043446374984]}}, {"type": "Feature", "properties": {"norad_id": 30401, "name": "FENGYUN 1C DEB", "group": "fengyun-1c-debris", "lat": 6.240539146488441, "lon": -140.77221396669762, "alt_km": 850.4043951065114, "timestamp": "2025-12-09T09:46:47.921899+00:00", "meta": {"OBJECT_NAME": "FENGYUN 1C DEB", "OBJECT_ID": "1999-025ADQ", "EPOCH": "2025-12-08T15:15:06.787008", "MEAN_MOTION": 14.27987168, "ECCENTRICITY": 0.0107701, "INCLINATION": 98.9473, "RA_OF_ASC_NODE": 219.4242, "ARG_OF_PERICENTER": 139.3137, "MEAN_ANOMALY": 221.6152, "EPHEMERIS_TYPE": 0, "CLASSIFICATION_TYPE": "U", "NORAD_CAT_ID": 30401, "ELEMENT_SET_NO": 999, "REV_AT_EPOCH": 98245, "BSTAR": 0.00026511, "MEAN_MOTION_DOT": 6.54e-06, "MEAN_MOTION_DDOT": 0}, "tle": {"line1": "1 30401U 99025ADQ 25342.63549522  .00000654  00000+0  26511-3 0  9997", "line2": "2 30401  98.9473 219.4242 0107701 139.3137 221.6152 14.27987168982457"}}, "geometry": {"type": "Point", "coordinates": [-140.77221396669762, 6.240539146488441]}}, {"type": "Feature", "properties": {"norad_id": 30403, "name": "FENGYUN 1C DEB", "group": "fengyun-1c-debris", "lat": -72.78947955984009, "lon": -149.25714504213113, "alt_km": 867.1751376684515, "timestamp": "2025-12-09T09:46:47.921910+00:00", "meta": {"OBJECT_NAME": "FENGYUN 1C DEB", "OBJECT_ID": "1999-025ADS", "EPOCH": "2025-12-08T20:45:24.968448", "MEAN_MOTION": 14.21482707, "ECCENTRICITY": 0.00748969, "INCLINATION": 99.0591, "RA_OF_ASC_NODE": 61.1882, "ARG_OF_PERICENTER": 34.3455, "MEAN_ANOMALY": 326.2531, "EPHEMERIS_TYPE": 0, "CLASSIFICATION_TYPE": "U", "NORAD_CAT_ID": 30403, "ELEMENT_SET_NO": 999, "REV_AT_EPOCH": 96751, "BSTAR": 0.0022008945, "MEAN_MOTION_DOT": 4.911e-05, "MEAN_MOTION_DDOT": 0}, "tle": {"line1": "1 30403U 99025ADS 25342.86487232  .00004911  00000+0  22009-2 0  9990", "line2": "2 30403  99.0591  61.1882 0074896  34.3455 326.2531 14.21482707967515"}}, "geometry": {"type": "Point", "coordinates": [-149.25714504213113, -72.78947955984009]}}, {"type": "Feature", "properties": {"norad_id": 30404, "name": "FENGYUN 1C DEB", "group": "fengyun-1c-debris", "lat": -70.0760421217286, "lon": 103.88849549121485, "alt_km": 1358.9718288692775, "timestamp": "2025-12-09T09:46:47.921921+00:00", "meta": {"OBJECT_NAME": "FENGYUN 1C DEB", "OBJECT_ID": "1999-025ADT", "EPOCH": "2025-11-30T17:24:43.426368", "MEAN_MOTION": 13.34313011, "ECCENTRICITY": 0.03760074, "INCLINATION": 99.8332, "RA_OF_ASC_NODE": 66.9455, "ARG_OF_PERICENTER": 165.4409, "MEAN_ANOMALY": 195.791, "EPHEMERIS_TYPE": 0, "CLASSIFICATION_TYPE": "U", "NORAD_CAT_ID": 30404, "ELEMENT_SET_NO": 999, "REV_AT_EPOCH": 57876, "BSTAR": 0.0014039979, "MEAN_MOTION_DOT": 1.003e-05, "MEAN_MOTION_DDOT": 0}, "tle": {"line1": "1 30404U 99025ADT 25334.72550262  .00001003  00000+0  14040-2 0  9996", "line2": "2 30404  99.8332  66.9455 0376007 165.4409 195.7910 13.34313011578769"}}, "geometry": {"type": "Point", "coordinates": [103.88849549121485, -70.0760421217286]}}, {"type": "Feature", "properties": {"norad_id": 30405, "name": "FENGYUN 1C DEB", "group": "fengyun-1c-debris", "lat": -15.328486321006457, "lon": 79.7968917710423, "alt_km": 837.1600224090917, "timestamp": "2025-12-09T09:46:47.921932+00:00", "meta": {"OBJECT_NAME": "FENGYUN 1C DEB", "OBJECT_ID": "1999-025ADU", "EPOCH": "2025-12-08T22:23:59.469216", "MEAN_MOTION": 14.2886332, "ECCENTRICITY": 0.00515262, "INCLINATION": 98.7941, "RA_OF_ASC_NODE": 76.887, "ARG_OF_PERICENTER": 164.6051, "MEAN_ANOMALY": 262.2912, "EPHEMERIS_TYPE": 0, "CLASSIFICATION_TYPE": "U", "NORAD_CAT_ID": 30405, "ELEMENT_SET_NO": 999, "REV_AT_EPOCH": 97341, "BSTAR": 0.002252682, "MEAN_MOTION_DOT": 5.724e-05, "MEAN_MOTION_DDOT": 0}, "tle": {"line1": "1 30405U 99025ADU 25342.93332719  .00005724  00000+0  22527-2 0  9997", "line2": "2 30405  98.7941  76.8870 0051526 164.6051 262.2912 14.28863320973415"}}, "geometry": {"type": "Point", "coordinates": [79.7968917710423, -15.328486321006457]}}, {"type": "Feature", "properties": {"norad_id": 30406, "name": "FENGYUN 1C DEB", "group": "fengyun-1c-debris", "lat": 62.92148250544864, "lon": -142.79271657894043, "alt_km": 910.5720836325727, "timestamp": "2025-12-09T09:46:47.921942+00:00", "meta": {"OBJECT_NAME": "FENGYUN 1C DEB", "OBJECT_ID": "1999-025ADV", "EPOCH": "2025-12-08T16:04:10.257024", "MEAN_MOTION": 13.59188825, "ECCENTRICITY": 0.0283072, "INCLINATION": 98.6202, "RA_OF_ASC_NODE": 233.8166, "ARG_OF_PERICENTER": 10.3523, "MEAN_ANOMALY": 42.4151, "EPHEMERIS_TYPE": 0, "CLASSIFICATION_TYPE": "U", "NORAD_CAT_ID": 30406, "ELEMENT_SET_NO": 999, "REV_AT_EPOCH": 93111, "BSTAR": 0.0036794, "MEAN_MOTION_DOT": 3.489e-05, "MEAN_MOTION_DDOT": 0}, "tle": {"line1": "1 30406U 99025ADV 25342.66956316  .00003489  00000+0  36794-2 0  9990", "line2": "2 30406  98.6202 233.8166 0283072  10.3523  42.4151 13.59188825931119"}}, "geometry": {"type": "Point", "coordinates": [-142.79271657894043, 62.92148250544864]}}, {"type": "Feature", "properties": {"norad_id": 30409, "name": "FENGYUN 1C DEB", "group": "fengyun-1c-debris", "lat": -10.78126893516771, "lon": -27.356851115731157, "alt_km": 774.8555322301181, "timestamp": "2025-12-09T09:46:47.921953+00:00", "meta": {"OBJECT_NAME": "FENGYUN 1C DEB", "OBJECT_ID": "1999-025ADY", "EPOCH": "2025-12-08T21:59:20.279616", "MEAN_MOTION": 14.03712413, "ECCENTRICITY": 0.01680754, "INCLINATION": 98.4731, "RA_OF_ASC_NODE": 330.5584, "ARG_OF_PERICENTER": 16.3465, "MEAN_ANOMALY": 12.4042, "EPHEMERIS_TYPE": 0, "CLASSIFICATION_TYPE": "U", "NORAD_CAT_ID": 30409, "ELEMENT_SET_NO": 999, "REV_AT_EPOCH": 96376, "BSTAR": 0.0012357659, "MEAN_MOTION_DOT": 2.163e-05, "MEAN_MOTION_DDOT": 0}, "tle": {"line1": "1 30409U 99025ADY 25342.91620694  .00002163  00000+0  12358-2 0  9996", "line2": "2 30409  98.4731 330.5584 0168075  16.3465  12.4042 14.03712413963760"}}, "geometry": {"type": "Point", "coordinates": [-27.356851115731157, -10.78126893516771]}}]}